[{"OBJECT_NAME":"BEIDOU-3 M20 (C42)","OBJECT_ID":"2019-090B","EPOCH":"2026-03-14T07:15:32.481792","MEAN_MOTION":1.86231612,"ECCENTRICITY":0.00178692,"INCLINATION":56.478,"RA_OF_ASC_NODE":65.96,"ARG_OF_PERICENTER":303.3279,"MEAN_ANOMALY":64.8469,"EPHEMERIS_TYPE":0,"CLASSIFICATION_TYPE":"U","NORAD_CAT_ID":44865,"ELEMENT_SET_NO":999,"REV_AT_EPOCH":4245,"BSTAR":0,"MEAN_MOTION_DOT":1.9e-7,"MEAN_MOTION_DDOT":0},{"OBJECT_NAME":"BEIDOU-3 G2 (C60)","OBJECT_ID":"2020-017A","EPOCH":"2026-03-15T03:42:55.084608","MEAN_MOTION":1.00272327,"ECCENTRICITY":0.00027417,"INCLINATION":2.6744,"RA_OF_ASC_NODE":45.755,"ARG_OF_PERICENTER":323.6454,"MEAN_ANOMALY":299.1401,"EPHEMERIS_TYPE":0,"CLASSIFICATION_TYPE":"U","NORAD_CAT_ID":45344,"ELEMENT_SET_NO":999,"REV_AT_EPOCH":2231,"BSTAR":0,"MEAN_MOTION_DOT":-1.39e-6,"MEAN_MOTION_DDOT":0},{"OBJECT_NAME":"COSMOS 2545 (760)","OBJECT_ID":"2020-018A","EPOCH":"2026-03-14T21:40:46.360704","MEAN_MOTION":2.13102754,"ECCENTRICITY":0.0007923,"INCLINATION":64.4114,"RA_OF_ASC_NODE":315.7347,"ARG_OF_PERICENTER":249.4705,"MEAN_ANOMALY":110.5087,"EPHEMERIS_TYPE":0,"CLASSIFICATION_TYPE":"U","NORAD_CAT_ID":45358,"ELEMENT_SET_NO":999,"REV_AT_EPOCH":4665,"BSTAR":0,"MEAN_MOTION_DOT":-1.7e-7,"MEAN_MOTION_DDOT":0},{"OBJECT_NAME":"BEIDOU-3 G3 (C61)","OBJECT_ID":"2020-040A","EPOCH":"2026-03-15T02:08:56.598144","MEAN_MOTION":1.00270422,"ECCENTRICITY":0.00048456,"INCLINATION":2.2145,"RA_OF_ASC_NODE":67.1502,"ARG_OF_PERICENTER":325.3989,"MEAN_ANOMALY":282.9054,"EPHEMERIS_TYPE":0,"CLASSIFICATION_TYPE":"U","NORAD_CAT_ID":45807,"ELEMENT_SET_NO":999,"REV_AT_EPOCH":2112,"BSTAR":0,"MEAN_MOTION_DOT":-3.53e-6,"MEAN_MOTION_DDOT":0},{"OBJECT_NAME":"GPS BIII-3  (PRN 23)","OBJECT_ID":"2020-041A","EPOCH":"2026-03-15T05:35:11.847264","MEAN_MOTION":2.00560555,"ECCENTRICITY":0.00615143,"INCLINATION":56.6123,"RA_OF_ASC_NODE":32.5896,"ARG_OF_PERICENTER":205.1444,"MEAN_ANOMALY":322.689,"EPHEMERIS_TYPE":0,"CLASSIFICATION_TYPE":"U","NORAD_CAT_ID":45854,"ELEMENT_SET_NO":999,"REV_AT_EPOCH":4215,"BSTAR":0,"MEAN_MOTION_DOT":-4.9e-7,"MEAN_MOTION_DDOT":0},{"OBJECT_NAME":"GALAXY 30 (WAAS/PRN 135)","OBJECT_ID":"2020-056C","EPOCH":"2026-03-15T06:09:55.986336","MEAN_MOTION":1.00270038,"ECCENTRICITY":0.00020217,"INCLINATION":0.0272,"RA_OF_ASC_NODE":152.7003,"ARG_OF_PERICENTER":214.1508,"MEAN_ANOMALY":133.4993,"EPHEMERIS_TYPE":0,"CLASSIFICATION_TYPE":"U","NORAD_CAT_ID":46114,"ELEMENT_SET_NO":999,"REV_AT_EPOCH":2035,"BSTAR":0,"MEAN_MOTION_DOT":0,"MEAN_MOTION_DDOT":0},{"OBJECT_NAME":"COSMOS 2547 (705K)","OBJECT_ID":"2020-075A","EPOCH":"2026-03-12T06:37:56.595072","MEAN_MOTION":2.13100396,"ECCENTRICITY":0.00070074,"INCLINATION":64.5993,"RA_OF_ASC_NODE":195.7069,"ARG_OF_PERICENTER":230.8854,"MEAN_ANOMALY":129.0383,"EPHEMERIS_TYPE":0,"CLASSIFICATION_TYPE":"U","NORAD_CAT_ID":46805,"ELEMENT_SET_NO":999,"REV_AT_EPOCH":4184,"BSTAR":0,"MEAN_MOTION_DOT":1.1e-7,"MEAN_MOTION_DDOT":0},{"OBJECT_NAME":"GPS BIII-4  (PRN 14)","OBJECT_ID":"2020-078A","EPOCH":"2026-03-15T06:47:15.490752","MEAN_MOTION":2.00565421,"ECCENTRICITY":0.00688109,"INCLINATION":53.9997,"RA_OF_ASC_NODE":214.585,"ARG_OF_PERICENTER":204.5097,"MEAN_ANOMALY":332.9899,"EPHEMERIS_TYPE":0,"CLASSIFICATION_TYPE":"U","NORAD_CAT_ID":46826,"ELEMENT_SET_NO":999,"REV_AT_EPOCH":3962,"BSTAR":0,"MEAN_MOTION_DOT":9.0e-8,"MEAN_MOTION_DDOT":0},{"OBJECT_NAME":"GPS BIII-5  (PRN 11)","OBJECT_ID":"2021-054A","EPOCH":"2026-03-14T12:40:55.654752","MEAN_MOTION":2.00575107,"ECCENTRICITY":0.00238027,"INCLINATION":55.2165,"RA_OF_ASC_NODE":336.2678,"ARG_OF_PERICENTER":231.6535,"MEAN_ANOMALY":305.6629,"EPHEMERIS_TYPE":0,"CLASSIFICATION_TYPE":"U","NORAD_CAT_ID":48859,"ELEMENT_SET_NO":999,"REV_AT_EPOCH":3485,"BSTAR":0,"MEAN_MOTION_DOT":-7.5e-7,"MEAN_MOTION_DDOT":0},{"OBJECT_NAME":"QZS-1R (QZSS/PRN 196)","OBJECT_ID":"2021-096A","EPOCH":"2026-03-14T11:37:12.588672","MEAN_MOTION":1.00287959,"ECCENTRICITY":0.0748407,"INCLINATION":37.2643,"RA_OF_ASC_NODE":80.9807,"ARG_OF_PERICENTER":269.9092,"MEAN_ANOMALY":130.192,"EPHEMERIS_TYPE":0,"CLASSIFICATION_TYPE":"U","NORAD_CAT_ID":49336,"ELEMENT_SET_NO":999,"REV_AT_EPOCH":1606,"BSTAR":0,"MEAN_MOTION_DOT":-2.13e-6,"MEAN_MOTION_DDOT":0},{"OBJECT_NAME":"GSAT0223 (GALILEO 27)","OBJECT_ID":"2021-116A","EPOCH":"2026-03-14T06:48:45.625824","MEAN_MOTION":1.70475737,"ECCENTRICITY":0.00019588,"INCLINATION":57.1915,"RA_OF_ASC_NODE":344.2418,"ARG_OF_PERICENTER":285.8605,"MEAN_ANOMALY":269.7171,"EPHEMERIS_TYPE":0,"CLASSIFICATION_TYPE":"U","NORAD_CAT_ID":49809,"ELEMENT_SET_NO":999,"REV_AT_EPOCH":2656,"BSTAR":0,"MEAN_MOTION_DOT":-8.1e-7,"MEAN_MOTION_DDOT":0},{"OBJECT_NAME":"GSAT0224 (GALILEO 28)","OBJECT_ID":"2021-116B","EPOCH":"2026-03-05T06:58:38.412768","MEAN_MOTION":1.7047576,"ECCENTRICITY":0.0001942,"INCLINATION":57.1948,"RA_OF_ASC_NODE":344.4822,"ARG_OF_PERICENTER":295.2728,"MEAN_ANOMALY":253.6293,"EPHEMERIS_TYPE":0,"CLASSIFICATION_TYPE":"U","NORAD_CAT_ID":49810,"ELEMENT_SET_NO":999,"REV_AT_EPOCH":2643,"BSTAR":0,"MEAN_MOTION_DOT":-1.05e-6,"MEAN_MOTION_DDOT":0},{"OBJECT_NAME":"COSMOS 2557 (706K)","OBJECT_ID":"2022-075A","EPOCH":"2026-03-13T20:22:48.025344","MEAN_MOTION":2.13102035,"ECCENTRICITY":0.00113868,"INCLINATION":64.3539,"RA_OF_ASC_NODE":317.846,"ARG_OF_PERICENTER":283.8913,"MEAN_ANOMALY":76.0424,"EPHEMERIS_TYPE":0,"CLASSIFICATION_TYPE":"U","NORAD_CAT_ID":52984,"ELEMENT_SET_NO":999,"REV_AT_EPOCH":2868,"BSTAR":0,"MEAN_MOTION_DOT":-2.9e-7,"MEAN_MOTION_DDOT":0},{"OBJECT_NAME":"COSMOS 2559 (707K)","OBJECT_ID":"2022-130A","EPOCH":"2026-03-15T01:49:57.814176","MEAN_MOTION":2.13101353,"ECCENTRICITY":0.00106673,"INCLINATION":64.3253,"RA_OF_ASC_NODE":317.8892,"ARG_OF_PERICENTER":179.9327,"MEAN_ANOMALY":180.1308,"EPHEMERIS_TYPE":0,"CLASSIFICATION_TYPE":"U","NORAD_CAT_ID":54031,"ELEMENT_SET_NO":999,"REV_AT_EPOCH":2668,"BSTAR":0,"MEAN_MOTION_DOT":-2.1e-7,"MEAN_MOTION_DDOT":0},{"OBJECT_NAME":"COSMOS 2564 (761)","OBJECT_ID":"2022-161A","EPOCH":"2026-03-13T12:17:21.575328","MEAN_MOTION":2.13101956,"ECCENTRICITY":0.00096749,"INCLINATION":64.7411,"RA_OF_ASC_NODE":195.8848,"ARG_OF_PERICENTER":211.591,"MEAN_ANOMALY":148.3349,"EPHEMERIS_TYPE":0,"CLASSIFICATION_TYPE":"U","NORAD_CAT_ID":54377,"ELEMENT_SET_NO":999,"REV_AT_EPOCH":2559,"BSTAR":0,"MEAN_MOTION_DOT":5.0e-8,"MEAN_MOTION_DDOT":0},{"OBJECT_NAME":"GPS BIII-6  (PRN 28)","OBJECT_ID":"2023-009A","EPOCH":"2026-03-15T05:33:53.175744","MEAN_MOTION":2.00548535,"ECCENTRICITY":0.0004379,"INCLINATION":55.111,"RA_OF_ASC_NODE":152.2127,"ARG_OF_PERICENTER":349.3823,"MEAN_ANOMALY":14.1122,"EPHEMERIS_TYPE":0,"CLASSIFICATION_TYPE":"U","NORAD_CAT_ID":55268,"ELEMENT_SET_NO":999,"REV_AT_EPOCH":2336,"BSTAR":0,"MEAN_MOTION_DOT":8.0e-8,"MEAN_MOTION_DDOT":0},{"OBJECT_NAME":"BEIDOU-3 G4 (C62)","OBJECT_ID":"2023-066A","EPOCH":"2026-03-13T04:10:32.176992","MEAN_MOTION":1.00272296,"ECCENTRICITY":0.00026474,"INCLINATION":0.6336,"RA_OF_ASC_NODE":312.1088,"ARG_OF_PERICENTER":153.4351,"MEAN_ANOMALY":287.9442,"EPHEMERIS_TYPE":0,"CLASSIFICATION_TYPE":"U","NORAD_CAT_ID":56564,"ELEMENT_SET_NO":999,"REV_AT_EPOCH":1043,"BSTAR":0,"MEAN_MOTION_DOT":-1.11e-6,"MEAN_MOTION_DDOT":0}]
